GPM-CORE                
1 39574U 14009C   22256.43574189  .00011501  00000+0  17009-3 0  9997
2 39574  64.9998 248.8473 0010194 268.7993  91.1985 15.55640786485298
GPM-CORE                
1 39574U 14009C   22256.82146398  .00011978  00000+0  17688-3 0  9998
2 39574  64.9999 247.5351 0010183 268.9361  91.0618 15.55650314485356
GPM-CORE                
1 39574U 14009C   22257.52861520  .00011312  00000+0  16721-3 0  9996
2 39574  65.0001 245.1294 0010160 269.0950  90.9032 15.55667077485467
GPM-CORE                
1 39574U 14009C   22257.52861520  .00011312  00000+0  16721-3 0  9996
2 39574  65.0001 245.1294 0010160 269.0950  90.9032 15.55667077485478
GPM-CORE                
1 39574U 14009C   22257.85004515  .00012109  00000+0  17861-3 0  9996
2 39574  65.0001 244.0359 0010164 269.1830  90.8151 15.55674926485517
GPM-CORE                
1 39574U 14009C   22258.49290006  .00011637  00000+0  17174-3 0  9991
2 39574  65.0002 241.8489 0010163 269.2815  90.7166 15.55690252485616
GPM-CORE                
1 39574U 14009C   22259.00717936  .00012406  00000+0  18268-3 0  9995
2 39574  65.0002 240.0993 0010159 269.4448  90.5535 15.55703398485700
GPM-CORE                
1 39574U 14009C   22259.52145450  .00011337  00000+0  16727-3 0  9998
2 39574  65.0003 238.3498 0010147 269.4557  90.5427 15.55714957485779
GPM-CORE                
1 39574U 14009C   22259.90715854  .00011743  00000+0  17305-3 0  9995
2 39574  65.0003 237.0377 0010146 269.6094  90.3890 15.55723690485831
GPM-CORE                
1 39574U 14009C   22260.16429350  .00009631  00000+0  14274-3 0  9993
2 39574  65.0003 236.1630 0010142 269.5973  90.4011 15.55726908485880
GPM-CORE                
1 39574U 14009C   22260.48571071  .00009980  00000+0  14770-3 0  9994
2 39574  65.0002 235.0693 0010143 269.6480  90.3504 15.55734807485929
GPM-CORE                
1 39574U 14009C   22260.87140978  .00010611  00000+0  15670-3 0  9998
2 39574  65.0002 233.7572 0010147 269.8118  90.1866 15.55743105485980
GPM-CORE                
1 39574U 14009C   22261.19282410  .00009871  00000+0  14606-3 0  9996
2 39574  65.0000 232.6638 0010155 269.8347  90.1635 15.55748879486047
GPM-CORE                
1 39574U 14009C   22261.44995429  .00011080  00000+0  16334-3 0  9990
2 39574  65.0001 231.7889 0010148 269.9136  90.0847 15.55756465486072
GPM-CORE                
1 39574U 14009C   22261.89992897  .00013488  00000+0  19773-3 0  9999
2 39574  65.0000 230.2580 0010150 270.1156  89.8827 15.55770425486146
GPM-CORE                
1 39574U 14009C   22262.15705506  .00015484  00000+0  22620-3 0  9991
2 39574  65.0000 229.3832 0010141 270.1274  89.8710 15.55780860486196
GPM-CORE                
1 39574U 14009C   22262.47846019  .00017134  00000+0  24966-3 0  9990
2 39574  65.0000 228.2895 0010144 270.1245  89.8738 15.55794579486231
GPM-CORE                
1 39574U 14009C   22262.86414317  .00019235  00000+0  27949-3 0  9993
2 39574  65.0000 226.9773 0010145 270.1943  89.8040 15.55811042486294
GPM-CORE                
1 39574U 14009C   22263.12126291  .00019186  00000+0  27869-3 0  9990
2 39574  65.0000 226.1024 0010136 270.1911  89.8073 15.55821230486342
GPM-CORE                
1 39574U 14009C   22263.50693964  .00017392  00000+0  25297-3 0  9998
2 39574  64.9999 224.7901 0010139 270.3259  89.6726 15.55834476486399
GPM-CORE                
1 39574U 14009C   22263.82833423  .00017798  00000+0  25864-3 0  9999
2 39574  64.9999 223.6965 0010141 270.4534  89.5450 15.55846872486449
GPM-CORE                
1 39574U 14009C   22264.21400428  .00018403  00000+0  26711-3 0  9994
2 39574  65.0000 222.3842 0010135 270.4689  89.5296 15.55862379486514
GPM-CORE                
1 39574U 14009C   22264.85678057  .00016973  00000+0  24655-3 0  9994
2 39574  65.0000 220.1969 0010137 270.6071  89.3914 15.55883607486601
GPM-CORE                
1 39574U 14009C   22265.43527147  .00016054  00000+0  23330-3 0  9991
2 39574  65.0002 218.2282 0010121 270.6121  89.3866 15.55902906486697
GPM-CORE                
1 39574U 14009C   22265.43527147  .00016054  00000+0  23330-3 0  9991
2 39574  65.0002 218.2282 0010121 270.6121  89.3866 15.55902906486709
GPM-CORE                
1 39574U 14009C   22265.82092866  .00016996  00000+0  24659-3 0  9999
2 39574  65.0003 216.9158 0010121 270.7777  89.2209 15.55915581486753
GPM-CORE                
1 39574U 14009C   22266.52795817  .00017564  00000+0  25445-3 0  9999
2 39574  65.0005 214.5097 0010125 270.7693  89.2293 15.55939245486871
GPM-CORE                
1 39574U 14009C   22266.84933136  .00019295  00000+0  27889-3 0  9999
2 39574  65.0006 213.4160 0010129 270.9615  89.0370 15.55952490486917
GPM-CORE                
1 39574U 14009C   22267.42779574  .00020954  00000+0  30216-3 0  9990
2 39574  65.0008 211.4473 0010121 271.0236  88.9751 15.55977589487005
GPM-CORE                
1 39574U 14009C   22267.81343364  .00021974  00000+0  31641-3 0  9993
2 39574  65.0011 210.1343 0010119 271.0205  88.9782 15.55995179487070
GPM-CORE                
1 39574U 14009C   22267.94197852  .00022463  00000+0  32327-3 0  9992
2 39574  65.0012 209.6969 0010123 271.1035  88.8952 15.56001144487085
GPM-CORE                
1 39574U 14009C   22268.39188277  .00019505  00000+0  28121-3 0  9993
2 39574  65.0013 208.1657 0010119 271.5468  88.4519 15.56017440487152
GPM-CORE                
1 39574U 14009C   22268.84178169  .00019078  00000+0  27497-3 0  9992
2 39574  65.0015 206.6344 0010116 271.2955  88.7032 15.56035683487225
GPM-CORE                
1 39574U 14009C   22269.35594592  .00017449  00000+0  25175-3 0  9992
2 39574  65.0015 204.8849 0010136 271.2194  88.7791 15.56053218487318
GPM-CORE                
1 39574U 14009C   22269.54875621  .00017044  00000+0  24597-3 0  9996
2 39574  65.0015 204.2287 0010137 271.2976  88.7009 15.56059035487334
GPM-CORE                
1 39574U 14009C   22269.87010452  .00017906  00000+0  25804-3 0  9994
2 39574  65.0015 203.1349 0010133 271.4645  88.5340 15.56071861487384
GPM-CORE                
1 39574U 14009C   22270.51279292  .00022187  00000+0  31819-3 0  9996
2 39574  65.0016 200.9473 0010136 271.6084  88.3901 15.56101035487490
GPM-CORE                
1 39574U 14009C   22270.83413200  .00023313  00000+0  33386-3 0  9993
2 39574  65.0017 199.8531 0010139 271.6524  88.3461 15.56117762487534
GPM-CORE                
1 39574U 14009C   22271.54106782  .00019729  00000+0  28302-3 0  9994
2 39574  65.0016 197.4467 0010136 271.8666  88.1320 15.56147401487648
GPM-CORE                
1 39574U 14009C   22271.54106782  .00019729  00000+0  28302-3 0  9994
2 39574  65.0016 197.4467 0010136 271.8666  88.1320 15.56147401487659
GPM-CORE                
1 39574U 14009C   22271.86239793  .00019981  00000+0  28642-3 0  9995
2 39574  65.0015 196.3529 0010138 271.7126  88.2859 15.56161207487699
GPM-CORE                
1 39574U 14009C   22272.56931455  .00020567  00000+0  29437-3 0  9992
2 39574  65.0012 193.9470 0010152 271.7808  88.2176 15.56189721487803
GPM-CORE                
1 39574U 14009C   22272.76210779  .00021033  00000+0  30082-3 0  9990
2 39574  65.0012 193.2906 0010151 271.8816  88.1168 15.56198086487847
GPM-CORE                
1 39574U 14009C   22272.89063593  .00020820  00000+0  29778-3 0  9997
2 39574  65.0011 192.8531 0010154 271.8536  88.1447 15.56203357487856
GPM-CORE                
1 39574U 14009C   22273.46900733  .00024737  00000+0  35246-3 0  9995
2 39574  65.0009 190.8835 0010146 272.1907  87.8078 15.56229921487946
GPM-CORE                
1 39574U 14009C   22273.79032021  .00024853  00000+0  35388-3 0  9993
2 39574  65.0009 189.7896 0010142 272.0215  87.9770 15.56245865487997
GPM-CORE                
1 39574U 14009C   22274.17589094  .00022055  00000+0  31444-3 0  9994
2 39574  65.0008 188.4769 0010142 272.5800  87.4185 15.56262909488068
GPM-CORE                
1 39574U 14009C   22274.49719665  .00021721  00000+0  30958-3 0  9996
2 39574  65.0007 187.3829 0010150 272.4058  87.5926 15.56278253488103
GPM-CORE                
1 39574U 14009C   22274.88275992  .00024699  00000+0  35106-3 0  9996
2 39574  65.0007 186.0703 0010163 272.3062  87.6921 15.56297121488165
GPM-CORE                
1 39574U 14009C   22275.20405830  .00023445  00000+0  33332-3 0  9996
2 39574  65.0007 184.9763 0010179 272.6195  87.3786 15.56311998488227
GPM-CORE                
1 39574U 14009C   22275.39683616  .00022690  00000+0  32265-3 0  9991
2 39574  65.0006 184.3198 0010177 272.5123  87.4859 15.56320777488249
GPM-CORE                
1 39574U 14009C   22275.84664649  .00027565  00000+0  39044-3 0  9994
2 39574  65.0007 182.7882 0010182 272.3089  87.6891 15.56346634488313
GPM-CORE                
1 39574U 14009C   22276.42496312  .00030485  00000+0  43065-3 0  9992
2 39574  65.0006 180.8188 0010177 272.5281  87.4700 15.56380228488415
GPM-CORE                
1 39574U 14009C   22276.48921983  .00028491  00000+0  40283-3 0  9998
2 39574  65.0006 180.6000 0010183 272.4543  87.5438 15.56382217488412
GPM-CORE                
1 39574U 14009C   22276.87475602  .00032657  00000+0  46042-3 0  9991
2 39574  65.0007 179.2872 0010196 272.5319  87.4660 15.56408729488479
GPM-CORE                
1 39574U 14009C   22277.51730346  .00031693  00000+0  44636-3 0  9998
2 39574  65.0008 177.0994 0010198 272.5944  87.4035 15.56447626488573
GPM-CORE                
1 39574U 14009C   22277.58155732  .00031301  00000+0  44086-3 0  9990
2 39574  65.0008 176.8806 0010202 272.5745  87.4234 15.56451456488596
GPM-CORE                
1 39574U 14009C   22277.83857130  .00029085  00000+0  40985-3 0  9999
2 39574  65.0010 176.0051 0010221 272.6897  87.3079 15.56464973488621
GPM-CORE                
1 39574U 14009C   22278.54534586  .00029046  00000+0  40866-3 0  9990
2 39574  65.0011 173.5978 0010258 272.7428  87.2544 15.56507517488733
